{
    "links": {
        "self": "http://www.neowsapp.com/rest/v1/neo/3545977?api_key=iIulBulltgU6a56xZRHN4H3l9WmuAYTsLGpBGhQ2"
    },
    "id": "3545977",
    "neo_reference_id": "3545977",
    "name": "(2010 RQ80)",
    "designation": "2010 RQ80",
    "nasa_jpl_url": "http://ssd.jpl.nasa.gov/sbdb.cgi?sstr=3545977",
    "absolute_magnitude_h": 22.7,
    "estimated_diameter": {
        "kilometers": {
            "estimated_diameter_min": 0.0766575574,
            "estimated_diameter_max": 0.1714115092
        },
        "meters": {
            "estimated_diameter_min": 76.6575573531,
            "estimated_diameter_max": 171.4115092306
        },
        "miles": {
            "estimated_diameter_min": 0.0476327831,
            "estimated_diameter_max": 0.1065101409
        },
        "feet": {
            "estimated_diameter_min": 251.5011804664,
            "estimated_diameter_max": 562.3737359442
        }
    },
    "is_potentially_hazardous_asteroid": false,
    "close_approach_data": [
        {
            "close_approach_date": "2006-10-06",
            "close_approach_date_full": "2006-Oct-06 02:37",
            "epoch_date_close_approach": 1160102220000,
            "relative_velocity": {
                "kilometers_per_second": "6.3749294352",
                "kilometers_per_hour": "22949.7459666377",
                "miles_per_hour": "14260.0796535477"
            },
            "miss_distance": {
                "astronomical": "0.4092583364",
                "lunar": "159.2014928596",
                "kilometers": "61224175.405183468",
                "miles": "38042938.5222811384"
            },
            "orbiting_body": "Earth"
        },
        {
            "close_approach_date": "2010-10-12",
            "close_approach_date_full": "2010-Oct-12 18:05",
            "epoch_date_close_approach": 1286906700000,
            "relative_velocity": {
                "kilometers_per_second": "5.0023977785",
                "kilometers_per_hour": "18008.6320026063",
                "miles_per_hour": "11189.8635907305"
            },
            "miss_distance": {
                "astronomical": "0.2170594955",
                "lunar": "84.4361437495",
                "kilometers": "32471638.190074585",
                "miles": "20176940.354155873"
            },
            "orbiting_body": "Earth"
        },
        {
            "close_approach_date": "2014-10-14",
            "close_approach_date_full": "2014-Oct-14 20:08",
            "epoch_date_close_approach": 1413317280000,
            "relative_velocity": {
                "kilometers_per_second": "6.1783224873",
                "kilometers_per_hour": "22241.9609544017",
                "miles_per_hour": "13820.289571917"
            },
            "miss_distance": {
                "astronomical": "0.3114105912",
                "lunar": "121.1387199768",
                "kilometers": "46586361.138960744",
                "miles": "28947422.5019325072"
            },
            "orbiting_body": "Earth"
        },
        {
            "close_approach_date": "2065-10-30",
            "close_approach_date_full": "2065-Oct-30 18:07",
            "epoch_date_close_approach": 3024151620000,
            "relative_velocity": {
                "kilometers_per_second": "12.3469366781",
                "kilometers_per_hour": "44448.9720410264",
                "miles_per_hour": "27618.8626551589"
            },
            "miss_distance": {
                "astronomical": "0.4356832595",
                "lunar": "169.4807879455",
                "kilometers": "65177287.615857265",
                "miles": "40499288.547529657"
            },
            "orbiting_body": "Earth"
        },
        {
            "close_approach_date": "2069-09-30",
            "close_approach_date_full": "2069-Sep-30 12:45",
            "epoch_date_close_approach": 3147770700000,
            "relative_velocity": {
                "kilometers_per_second": "9.6491164842",
                "kilometers_per_hour": "34736.8193431775",
                "miles_per_hour": "21584.1086635427"
            },
            "miss_distance": {
                "astronomical": "0.2997557652",
                "lunar": "116.6049926628",
                "kilometers": "44842823.994140124",
                "miles": "27864038.7573127512"
            },
            "orbiting_body": "Earth"
        }
    ],
    "orbital_data": {
        "orbit_id": "14",
        "orbit_determination_date": "2017-04-06 08:56:44",
        "first_observation_date": "2010-09-10",
        "last_observation_date": "2010-11-15",
        "data_arc_in_days": 66,
        "observations_used": 54,
        "orbit_uncertainty": "6",
        "minimum_orbit_intersection": ".201404",
        "jupiter_tisserand_invariant": "3.261",
        "epoch_osculation": "2459000.5",
        "eccentricity": ".5200291894707807",
        "semi_major_axis": "2.495656159557073",
        "inclination": "6.442847046434472",
        "ascending_node_longitude": "195.9817876863481",
        "orbital_period": "1440.043303057864",
        "perihelion_distance": "1.197842109704847",
        "perihelion_argument": "186.7143993062624",
        "aphelion_distance": "3.793470209409299",
        "perihelion_time": "2458380.332296385442",
        "mean_anomaly": "155.0372636900279",
        "mean_motion": ".2499924823340777",
        "equinox": "J2000",
        "orbit_class": {
            "orbit_class_type": "AMO",
            "orbit_class_description": "Near-Earth asteroid orbits similar to that of 1221 Amor",
            "orbit_class_range": "1.017 AU < q (perihelion) < 1.3 AU"
        }
    },
    "is_sentry_object": false
}